{"type": "FeatureCollection", "features": [ {"type": "Feature", "properties": {"norad_id": 39620, "name": "COSMOS 2492 (754)", "group": "gnss", "lat": 48.01565867312025, "lon": 109.80660904021279, "alt_km": 19160.374272784607, "timestamp": "2025-12-08T23:34:04.211516+00:00", "meta": {"OBJECT_NAME": "COSMOS 2492 (754)", "OBJECT_ID": "2014-012A", "EPOCH": "2025-12-08T08:23:17.785824", "MEAN_MOTION": 2.13103117, "ECCENTRICITY": 0.0014207, "INCLINATION": 65.4103, "RA_OF_ASC_NODE": 320.4195, "ARG_OF_PERICENTER": 311.8365, "MEAN_ANOMALY": 48.0373, "EPHEMERIS_TYPE": 0, "CLASSIFICATION_TYPE": "U", "NORAD_CAT_ID": 39620, "ELEMENT_SET_NO": 999, "REV_AT_EPOCH": 9117, "BSTAR": 0, "MEAN_MOTION_DOT": -4.9e-07, "MEAN_MOTION_DDOT": 0}, "tle": {"line1": "1 39620U 14012A   25342.34951141 -.00000049  00000+0  00000+0 0  9994", "line2": "2 39620  65.4103 320.4195 0014207 311.8365  48.0373  2.13103117 91178"}}, "geometry": {"type": "Point", "coordinates": [109.80660904021279, 48.01565867312025]}}, {"type": "Feature", "properties": {"norad_id": 39635, "name": "IRNSS-1B", "group": "gnss", "lat": -25.47628188009293, "lon": 123.57509332124873, "alt_km": 35750.376291566965, "timestamp": "2025-12-08T23:34:04.211527+00:00", "meta": {"OBJECT_NAME": "IRNSS-1B", "OBJECT_ID": "2014-017A", "EPOCH": "2025-12-07T19:02:08.350080", "MEAN_MOTION": 1.00276938, "ECCENTRICITY": 0.00176548, "INCLINATION": 28.8332, "RA_OF_ASC_NODE": 243.6763, "ARG_OF_PERICENTER": 183.0277, "MEAN_ANOMALY": 350.7455, "EPHEMERIS_TYPE": 0, "CLASSIFICATION_TYPE": "U", "NORAD_CAT_ID": 39635, "ELEMENT_SET_NO": 999, "REV_AT_EPOCH": 4287, "BSTAR": 0, "MEAN_MOTION_DOT": 1.18e-06, "MEAN_MOTION_DDOT": 0}, "tle": {"line1": "1 39635U 14017A   25341.79315220  .00000118  00000+0  00000+0 0  9991", "line2": "2 39635  28.8332 243.6763 0017654 183.0277 350.7455  1.00276938 42872"}}, "geometry": {"type": "Point", "coordinates": [123.57509332124873, -25.47628188009293]}}, {"type": "Feature", "properties": {"norad_id": 39727, "name": "LUCH 5V (SDCM/PRN 141)", "group": "gnss", "lat": 4.6466320254528455, "lon": 166.23727399553817, "alt_km": 35792.141903833995, "timestamp": "2025-12-08T23:34:04.211542+00:00", "meta": {"OBJECT_NAME": "LUCH 5V (SDCM/PRN 141)", "OBJECT_ID": "2014-023A", "EPOCH": "2025-12-07T19:13:14.786112", "MEAN_MOTION": 1.00270486, "ECCENTRICITY": 0.00045992, "INCLINATION": 4.6568, "RA_OF_ASC_NODE": 71.5807, "ARG_OF_PERICENTER": 203.2773, "MEAN_ANOMALY": 185.0478, "EPHEMERIS_TYPE": 0, "CLASSIFICATION_TYPE": "U", "NORAD_CAT_ID": 39727, "ELEMENT_SET_NO": 999, "REV_AT_EPOCH": 4244, "BSTAR": 0, "MEAN_MOTION_DOT": -2.67e-06, "MEAN_MOTION_DDOT": 0}, "tle": {"line1": "1 39727U 14023A   25341.80086558 -.00000267  00000+0  00000+0 0  9997", "line2": "2 39727   4.6568  71.5807 0004599 203.2773 185.0478  1.00270486 42443"}}, "geometry": {"type": "Point", "coordinates": [166.23727399553817, 4.6466320254528455]}}, {"type": "Feature", "properties": {"norad_id": 39741, "name": "GPS BIIF-6  (PRN 06)", "group": "gnss", "lat": -13.13428529736572, "lon": -29.944610160815845, "alt_km": 20090.97071641469, "timestamp": "2025-12-08T23:34:04.211554+00:00", "meta": {"OBJECT_NAME": "GPS BIIF-6  (PRN 06)", "OBJECT_ID": "2014-026A", "EPOCH": "2025-12-08T00:09:26.593920", "MEAN_MOTION": 2.00561568, "ECCENTRICITY": 0.00390609, "INCLINATION": 56.5854, "RA_OF_ASC_NODE": 338.9605, "ARG_OF_PERICENTER": 318.4068, "MEAN_ANOMALY": 41.3073, "EPHEMERIS_TYPE": 0, "CLASSIFICATION_TYPE": "U", "NORAD_CAT_ID": 39741, "ELEMENT_SET_NO": 999, "REV_AT_EPOCH": 8470, "BSTAR": 0, "MEAN_MOTION_DOT": -8.2e-07, "MEAN_MOTION_DDOT": 0}, "tle": {"line1": "1 39741U 14026A   25342.00655780 -.00000082  00000+0  00000+0 0  9993", "line2": "2 39741  56.5854 338.9605 0039060 318.4068  41.3073  2.00561568 84701"}}, "geometry": {"type": "Point", "coordinates": [-29.944610160815845, -13.13428529736572]}}, {"type": "Feature", "properties": {"norad_id": 40001, "name": "COSMOS 2500 (755)", "group": "gnss", "lat": -6.288159502086859, "lon": -42.751691377113765, "alt_km": 19145.263309238006, "timestamp": "2025-12-08T23:34:04.211566+00:00", "meta": {"OBJECT_NAME": "COSMOS 2500 (755)", "OBJECT_ID": "2014-032A", "EPOCH": "2025-12-08T01:15:37.591488", "MEAN_MOTION": 2.13105896, "ECCENTRICITY": 0.00081247, "INCLINATION": 65.3461, "RA_OF_ASC_NODE": 320.1922, "ARG_OF_PERICENTER": 219.298, "MEAN_ANOMALY": 140.6379, "EPHEMERIS_TYPE": 0, "CLASSIFICATION_TYPE": "U", "NORAD_CAT_ID": 40001, "ELEMENT_SET_NO": 999, "REV_AT_EPOCH": 8938, "BSTAR": 0, "MEAN_MOTION_DOT": -4.9e-07, "MEAN_MOTION_DDOT": 0}, "tle": {"line1": "1 40001U 14032A   25342.05251842 -.00000049  00000+0  00000+0 0  9990", "line2": "2 40001  65.3461 320.1922 0008124 219.2980 140.6379  2.13105896 89380"}}, "geometry": {"type": "Point", "coordinates": [-42.751691377113765, -6.288159502086859]}}, {"type": "Feature", "properties": {"norad_id": 40105, "name": "GPS BIIF-7  (PRN 09)", "group": "gnss", "lat": -53.64727766151378, "lon": 25.500454074534474, "alt_km": 20269.897383918385, "timestamp": "2025-12-08T23:34:04.211577+00:00", "meta": {"OBJECT_NAME": "GPS BIIF-7  (PRN 09)", "OBJECT_ID": "2014-045A", "EPOCH": "2025-12-07T14:17:59.496864", "MEAN_MOTION": 2.00572139, "ECCENTRICITY": 0.00328259, "INCLINATION": 55.2261, "RA_OF_ASC_NODE": 96.1042, "ARG_OF_PERICENTER": 119.7348, "MEAN_ANOMALY": 240.5718, "EPHEMERIS_TYPE": 0, "CLASSIFICATION_TYPE": "U", "NORAD_CAT_ID": 40105, "ELEMENT_SET_NO": 999, "REV_AT_EPOCH": 8223, "BSTAR": 0, "MEAN_MOTION_DOT": -4e-08, "MEAN_MOTION_DDOT": 0}, "tle": {"line1": "1 40105U 14045A   25341.59582751 -.00000004  00000+0  00000+0 0  9994", "line2": "2 40105  55.2261  96.1042 0032825 119.7348 240.5718  2.00572139 82239"}}, "geometry": {"type": "Point", "coordinates": [25.500454074534474, -53.64727766151378]}}, {"type": "Feature", "properties": {"norad_id": 40128, "name": "GSAT0201 (GALILEO 5)", "group": "gnss", "lat": -48.97741628296999, "lon": -174.15452763254035, "alt_km": 21193.22655899638, "timestamp": "2025-12-08T23:34:04.211589+00:00", "meta": {"OBJECT_NAME": "GSAT0201 (GALILEO 5)", "OBJECT_ID": "2014-050A", "EPOCH": "2025-12-07T12:54:32.900256", "MEAN_MOTION": 1.85519488, "ECCENTRICITY": 0.16474216, "INCLINATION": 49.0828, "RA_OF_ASC_NODE": 281.2757, "ARG_OF_PERICENTER": 172.085, "MEAN_ANOMALY": 190.9173, "EPHEMERIS_TYPE": 0, "CLASSIFICATION_TYPE": "U", "NORAD_CAT_ID": 40128, "ELEMENT_SET_NO": 999, "REV_AT_EPOCH": 7476, "BSTAR": 0, "MEAN_MOTION_DOT": -5.9e-07, "MEAN_MOTION_DDOT": 0}, "tle": {"line1": "1 40128U 14050A   25341.53788079 -.00000059  00000+0  00000+0 0  9990", "line2": "2 40128  49.0828 281.2757 1647421 172.0850 190.9173  1.85519488 74761"}}, "geometry": {"type": "Point", "coordinates": [-174.15452763254035, -48.97741628296999]}}, {"type": "Feature", "properties": {"norad_id": 40129, "name": "GSAT0202 (GALILEO 6)", "group": "gnss", "lat": 39.910738751142745, "lon": -33.32165067006156, "alt_km": 22852.502132810238, "timestamp": "2025-12-08T23:34:04.211600+00:00", "meta": {"OBJECT_NAME": "GSAT0202 (GALILEO 6)", "OBJECT_ID": "2014-050B", "EPOCH": "2025-12-06T04:15:08.981856", "MEAN_MOTION": 1.85520222, "ECCENTRICITY": 0.16479377, "INCLINATION": 49.1003, "RA_OF_ASC_NODE": 280.4147, "ARG_OF_PERICENTER": 172.7832, "MEAN_ANOMALY": 189.9608, "EPHEMERIS_TYPE": 0, "CLASSIFICATION_TYPE": "U", "NORAD_CAT_ID": 40129, "ELEMENT_SET_NO": 999, "REV_AT_EPOCH": 7690, "BSTAR": 0, "MEAN_MOTION_DOT": -5.4e-07, "MEAN_MOTION_DDOT": 0}, "tle": {"line1": "1 40129U 14050B   25340.17718729 -.00000054  00000+0  00000+0 0  9990", "line2": "2 40129  49.1003 280.4147 1647937 172.7832 189.9608  1.85520222 76908"}}, "geometry": {"type": "Point", "coordinates": [-33.32165067006156, 39.910738751142745]}}, {"type": "Feature", "properties": {"norad_id": 40269, "name": "IRNSS-1C", "group": "gnss", "lat": 5.3262391703737935, "lon": 154.46460669851973, "alt_km": 35748.05609009363, "timestamp": "2025-12-08T23:34:04.211612+00:00", "meta": {"OBJECT_NAME": "IRNSS-1C", "OBJECT_ID": "2014-061A", "EPOCH": "2025-12-08T08:51:41.995584", "MEAN_MOTION": 1.0026843, "ECCENTRICITY": 0.00177959, "INCLINATION": 6.0298, "RA_OF_ASC_NODE": 92.71, "ARG_OF_PERICENTER": 2.4883, "MEAN_ANOMALY": 198.0291, "EPHEMERIS_TYPE": 0, "CLASSIFICATION_TYPE": "U", "NORAD_CAT_ID": 40269, "ELEMENT_SET_NO": 999, "REV_AT_EPOCH": 4077, "BSTAR": 0, "MEAN_MOTION_DOT": -1.59e-06, "MEAN_MOTION_DDOT": 0}, "tle": {"line1": "1 40269U 14061A   25342.36923606 -.00000159  00000+0  00000+0 0  9998", "line2": "2 40269   6.0298  92.7100 0017795   2.4883 198.0291  1.00268430 40773"}}, "geometry": {"type": "Point", "coordinates": [154.46460669851973, 5.3262391703737935]}}, {"type": "Feature", "properties": {"norad_id": 40294, "name": "GPS BIIF-8  (PRN 03)", "group": "gnss", "lat": 7.770453641976788, "lon": 43.42009436672995, "alt_km": 20099.627601686865, "timestamp": "2025-12-08T23:34:04.211626+00:00", "meta": {"OBJECT_NAME": "GPS BIIF-8  (PRN 03)", "OBJECT_ID": "2014-068A", "EPOCH": "2025-12-08T11:17:40.854336", "MEAN_MOTION": 2.00564487, "ECCENTRICITY": 0.00607942, "INCLINATION": 56.8546, "RA_OF_ASC_NODE": 38.3112, "ARG_OF_PERICENTER": 69.2801, "MEAN_ANOMALY": 291.427, "EPHEMERIS_TYPE": 0, "CLASSIFICATION_TYPE": "U", "NORAD_CAT_ID": 40294, "ELEMENT_SET_NO": 999, "REV_AT_EPOCH": 8138, "BSTAR": 0, "MEAN_MOTION_DOT": -7.8e-07, "MEAN_MOTION_DDOT": 0}, "tle": {"line1": "1 40294U 14068A   25342.47061174 -.00000078  00000+0  00000+0 0  9998", "line2": "2 40294  56.8546  38.3112 0060794  69.2801 291.4270  2.00564487 81386"}}, "geometry": {"type": "Point", "coordinates": [43.42009436672995, 7.770453641976788]}}]}